[{"OBJECT_NAME":"STARLINK-3776","OBJECT_ID":"2022-041AD","EPOCH":"2026-03-09T08:48:22.425408","MEAN_MOTION":15.08834865,"ECCENTRICITY":0.00014032,"INCLINATION":53.2159,"RA_OF_ASC_NODE":100.5711,"ARG_OF_PERICENTER":90.3885,"MEAN_ANOMALY":269.7268,"EPHEMERIS_TYPE":0,"CLASSIFICATION_TYPE":"U","NORAD_CAT_ID":52288,"ELEMENT_SET_NO":999,"REV_AT_EPOCH":21445,"BSTAR":-3.2778753e-5,"MEAN_MOTION_DOT":-8.09e-6,"MEAN_MOTION_DDOT":0},{"OBJECT_NAME":"ELECTRON KICK STAGE R\/B","OBJECT_ID":"2023-035A","EPOCH":"2026-03-09T00:22:03.988416","MEAN_MOTION":15.09409521,"ECCENTRICITY":0.00017263,"INCLINATION":44.1756,"RA_OF_ASC_NODE":311.3301,"ARG_OF_PERICENTER":9.8979,"MEAN_ANOMALY":350.1918,"EPHEMERIS_TYPE":0,"CLASSIFICATION_TYPE":"U","NORAD_CAT_ID":55908,"ELEMENT_SET_NO":999,"REV_AT_EPOCH":16322,"BSTAR":0.00066616987,"MEAN_MOTION_DOT":0.00010608,"MEAN_MOTION_DDOT":0}]
